[{"OBJECT_NAME":"GAOFEN-3 03","OBJECT_ID":"2022-035A","EPOCH":"2026-03-10T00:27:29.452896","MEAN_MOTION":14.42227519,"ECCENTRICITY":0.00014785,"INCLINATION":98.411,"RA_OF_ASC_NODE":79.0226,"ARG_OF_PERICENTER":98.2358,"MEAN_ANOMALY":261.8999,"EPHEMERIS_TYPE":0,"CLASSIFICATION_TYPE":"U","NORAD_CAT_ID":52200,"ELEMENT_SET_NO":999,"REV_AT_EPOCH":20655,"BSTAR":-2.1725867e-5,"MEAN_MOTION_DOT":-1.15e-6,"MEAN_MOTION_DDOT":0},{"OBJECT_NAME":"THOR BURNER 2 R\/B","OBJECT_ID":"1971-012B","EPOCH":"2026-03-09T14:43:05.880864","MEAN_MOTION":14.39720483,"ECCENTRICITY":0.0036596,"INCLINATION":98.3401,"RA_OF_ASC_NODE":285.2115,"ARG_OF_PERICENTER":169.7994,"MEAN_ANOMALY":190.3946,"EPHEMERIS_TYPE":0,"CLASSIFICATION_TYPE":"U","NORAD_CAT_ID":4954,"ELEMENT_SET_NO":999,"REV_AT_EPOCH":88154,"BSTAR":0.00010453,"MEAN_MOTION_DOT":2.87e-6,"MEAN_MOTION_DDOT":0}]
